INTELSAT 9 (IS-9)       
1 26451U 00043A   25183.35392052 -.00000186  00000+0  00000+0 0  9997
2 26451   9.6156  52.3719 0001752 118.3576 230.4288  0.99409996 40624
INTELSAT 10 (IS-10)     
1 26766U 01019A   25183.15142896 -.00000007  00000+0  00000+0 0  9999
2 26766   8.2351  62.8261 0002896  19.2071 319.0106  1.00270921 42107
INTELSAT 902 (IS-902)   
1 26900U 01039A   25180.09766951 -.00000290  00000+0  00000+0 0  9999
2 26900   5.2233  76.1198 0004234  23.9096 162.4780  1.00270479 87157
INTELSAT 904 (IS-904)   
1 27380U 02007A   25183.48979347 -.00000200  00000+0  00000+0 0  9990
2 27380   6.0432  73.3927 0002217  29.3244 326.8657  1.00273004 48257
DIRECTV 5 (TEMPO 1)     
1 27426U 02023A   25183.42258122 -.00000051  00000+0  00000+0 0  9998
2 27426   3.9823  79.7224 0003340  26.8826 216.0961  1.00272130 84611
INTELSAT 905 (IS-905)   
1 27438U 02027A   25183.39922909  .00000099  00000+0  00000+0 0  9993
2 27438   5.8719  74.0303 0002507  22.7502 190.3833  1.00271946 47856
GALAXY 3C (G-3C)        
1 27445U 02030A   25183.54785536 -.00000146  00000+0  00000+0 0  9999
2 27445   2.8330  82.4025 0003197  44.8603 255.9437  1.00271980 42982
INTELSAT 906 (IS-906)   
1 27513U 02041A   25183.36520166  .00000017  00000+0  00000+0 0  9999
2 27513   4.9115  77.2631 0003825  16.3384  22.6526  1.00271927 83529
GALAXY 23 (G-23)        
1 27854U 03034A   25183.51750402  .00000016  00000+0  00000+0 0  9994
2 27854   2.2920  84.0270 0002035  64.9463 152.2640  0.99501659 80233
GALAXY 13 (HORIZONS-1)  
1 27954U 03044A   25183.50677072  .00000140  00000+0  00000+0 0  9994
2 27954   0.5134  89.3563 0002002 359.5373 224.3272  1.00269909 43066
INTELSAT 10-02          
1 28358U 04022A   25183.42353772 -.00000004  00000+0  00000+0 0  9999
2 28358   0.0135 304.4820 0000632 173.8208 313.8931  1.00272142 77043
XM-3 (RHYTHM)           
1 28626U 05008A   25183.54950609 -.00000191  00000+0  00000+0 0  9994
2 28626   0.0400 177.6784 0000675 329.3143 245.3113  1.00270420 39112
DIRECTV 8               
1 28659U 05019A   25183.54299006  .00000009  00000+0  00000+0 0  9996
2 28659   0.0162   7.7553 0003203  96.0396 253.4540  1.00273561 73568
GALAXY 28 (G-28)        
1 28702U 05022A   25183.54907169 -.00000180  00000+0  00000+0 0  9996
2 28702   2.3968  83.3485 0002654  26.1751 280.2732  1.00271684 48475
GALAXY 16 (G-16)        
1 29236U 06023A   25183.54698656 -.00000119  00000+0  00000+0 0  9991
2 29236   0.0438 217.4266 0002821 249.6161 271.6861  1.00272855 69465
DIRECTV 9S              
1 29494U 06043A   25183.54655215 -.00000106  00000+0  00000+0 0  9999
2 29494   1.5174  85.2758 0003007  18.2069 272.8909  1.00272447 47879
GALAXY 17 (G-17)        
1 31307U 07016B   25183.54976674 -.00000199  00000+0  00000+0 0  9993
2 31307   2.0861  84.4329 0002813  45.8117 263.4831  1.00271981 66292
DIRECTV 10              
1 31862U 07032A   25183.54620463 -.00000096  00000+0  00000+0 0  9995
2 31862   0.0412 208.0141 0000488 315.1715 211.4752  1.00274884 42088
INTELSAT 11 (IS-11)     
1 32253U 07044B   25183.53951484  .00000070  00000+0  00000+0 0  9993
2 32253   2.6534  83.0442 0004056  75.2253 180.1427  0.99048822 64989
HORIZONS-2              
1 32388U 07063B   25183.55202562 -.00000246  00000+0  00000+0 0  9997
2 32388   1.6989  85.0736 0002115  28.6196 292.0580  1.00273110 64303
DIRECTV 11              
1 32729U 08013A   25183.45194384 -.00000116  00000+0  00000+0 0  9999
2 32729   0.0205 196.0864 0001292  84.8906  63.2484  1.00256086 42084
GALAXY 18 (G-18)        
1 32951U 08024A   25183.54220814  .00000033  00000+0  00000+0 0  9993
2 32951   0.0180 342.2502 0003227 122.1068 248.6431  1.00272715 42349
INTELSAT 25 (IS-25)     
1 33153U 08034A   25183.48901155 -.00000217  00000+0  00000+0 0  9991
2 33153   1.8055  84.7364 0003260  27.8481 312.7436  1.00271992 62183
GALAXY 19 (G-19)        
1 33376U 08045A   25183.54742096 -.00000131  00000+0  00000+0 0  9999
2 33376   0.0324 268.7816 0002929 196.0075 276.1030  1.00272811 61391
FM-5                    
1 35493U 09034A   25183.54950609 -.00000192  00000+0  00000+0 0  9998
2 35493   0.0142 332.0440 0000475  31.7548  28.6956  1.00270680 43134
INTELSAT 14 (IS-14)     
1 36097U 09064A   25183.48631825 -.00000266  00000+0  00000+0 0  9993
2 36097   0.0119 330.7126 0002604 141.2427 298.8869  1.00270934 57090
INTELSAT 15 (IS-15)     
1 36106U 09067A   25183.58531825 -.00000178  00000+0  00000+0 0  9999
2 36106   0.0171  38.2096 0002217  67.1735 111.3318  1.00271256 37727
DIRECTV 12              
1 36131U 09075A   25183.54629152 -.00000095  00000+0  00000+0 0  9991
2 36131   0.0297 165.8131 0000452 266.1593 302.7908  1.00268645 43044
INTELSAT 16 (IS-16)     
1 36397U 10006A   25183.55150434 -.00000237  00000+0  00000+0 0  9992
2 36397   0.0087 346.9491 0002119 126.4886 289.7297  1.00272427 56144
XM-5                    
1 37185U 10053A   25183.54377198 -.00000015  00000+0  00000+0 0  9991
2 37185   0.0423 273.9059 0000311  87.0942   0.3728  1.00270437 53973
INTELSAT 17 (IS-17)     
1 37238U 10065B   25183.58519174  .00000006  00000+0  00000+0 0  9998
2 37238   0.0093 105.5570 0002698  16.6769  75.2912  1.00271875 53410
INTELSAT 28 (IS-28)     
1 37392U 11016A   25183.23239236 -.00000219  00000+0  00000+0 0  9993
2 37392   0.9009  87.3275 0004266   6.4618 238.6808  1.00273203 49779
INTELSAT 18 (IS-18)     
1 37834U 11056A   25183.53091368  .00000060  00000+0  00000+0 0  9996
2 37834   0.0137  63.8457 0001851  29.7360 198.3455  1.00272126 50307
INTELSAT 22 (IS-22)     
1 38098U 12011A   25183.50941917 -.00000051  00000+0  00000+0 0  9993
2 38098   0.0158  47.0976 0001720  55.7793  73.3997  1.00271352  3689
INTELSAT 19 (IS-19)     
1 38356U 12030A   25183.52813351 -.00000049  00000+0  00000+0 0  9990
2 38356   0.0126  52.9934 0003050  53.6167 170.3230  1.00272399 46946
INTELSAT 20 (IS-20)     
1 38740U 12043A   25183.40392126 -.00000018  00000+0  00000+0 0  9996
2 38740   0.0075  65.8458 0000793 123.6569 305.0895  1.00271562 47244
INTELSAT 21 (IS-21)     
1 38749U 12045A   25183.46493419 -.00000277  00000+0  00000+0 0  9997
2 38749   0.0404 269.5502 0001168 253.8798 226.6589  1.00267099 47012
INTELSAT 23 (IS-23)     
1 38867U 12057A   25183.48475441 -.00000277  00000+0  00000+0 0  9998
2 38867   0.0410 106.4821 0001479 306.0451 349.7460  1.00274210 46449
FM-6                    
1 39360U 13058A   25183.54359822 -.00000009  00000+0  00000+0 0  9993
2 39360   0.0114  37.1927 0001149 126.6200 196.5394  1.00269862 42557
INTELSAT 30 (IS-30)     
1 40271U 14062A   25183.54776848 -.00000143  00000+0  00000+0 0  9992
2 40271   0.0148  39.3954 0001410 352.8377 350.7207  1.00271044  3278
DIRECTV 14              
1 40333U 14078B   25183.54698656 -.00000118  00000+0  00000+0 0  9990
2 40333   0.0221  28.0903 0000316 115.1795 235.2532  1.00270134 38530
DIRECTV 15              
1 40663U 15026A   25183.54620463 -.00000094  00000+0  00000+0 0  9994
2 40663   0.0121  60.9065 0000141   7.6486 306.0285  1.00269773 36950
SKY MEXICO-1            
1 40664U 15026B   25183.55098306 -.00000227  00000+0  00000+0 0  9999
2 40664   0.0117  42.4953 0002082  62.0316 295.8846  1.00271411 36949
INTELSAT 34 (IS-34)     
1 40874U 15039A   25183.55558772 -.00000278  00000+0  00000+0 0  9990
2 40874   0.0170   9.4745 0001440 346.1554  69.7170  1.00270821 36111
INTELSAT 31 (IS-31)     
1 41581U 16035A   25183.54776848 -.00000143  00000+0  00000+0 0  9999
2 41581   0.0146 284.1232 0001711 313.0039 145.8269  1.00270835 33178
INTELSAT 36 (IS-36)     
1 41747U 16053A   25183.58243751 -.00000017  00000+0  00000+0 0  9999
2 41747   0.0130  29.6833 0001865 309.3458 219.9986  1.00271473 32444
INTELSAT 32E (IS-32E)   
1 41945U 17007B   25183.48666578 -.00000262  00000+0  00000+0 0  9996
2 41945   0.0165  68.0032 0000632 293.7269  51.0558  1.00268425 30718
INTELSAT 35E (IS-35E)   
1 42818U 17041A   25183.50391858 -.00000231  00000+0  00000+0 0  9999
2 42818   0.0267 277.7810 0001911 173.9692 335.9306  1.00269941 29306
INTELSAT 37E (IS-37E)   
1 42950U 17059A   25183.43378248 -.00000134  00000+0  00000+0 0  9997
2 42950   0.0152  71.6408 0002809  54.2288 292.9911  1.00271134 28556
AZERSPACE 2 (IS-38)     
1 43632U 18074A   25183.50420635  .00000144  00000+0  00000+0 0  9999
2 43632   0.0187  27.1740 0001479  74.4248  45.7975  1.00272079 24941
HORIZONS-3E             
1 43633U 18074B   25183.52874167 -.00000023  00000+0  00000+0 0  9992
2 43633   0.0550 191.1565 0000954  95.7592 353.2320  1.00270381 24831
AT&T T-16               
1 44333U 19034A   25183.54663904 -.00000107  00000+0  00000+0 0  9997
2 44333   0.0305  81.0040 0000667 274.2264  21.5088  1.00270416 22128
INTELSAT 39 (IS-39)     
1 44476U 19049B   25183.61794851  .00000041  00000+0  00000+0 0  9991
2 44476   0.0215  21.3584 0001078 314.4611 229.4784  1.00269567 21627
GALAXY 30 (G-30)        
1 46114U 20056C   25183.50183656  .00000044  00000+0  00000+0 0  9998
2 46114   0.0125  60.9283 0002042  39.3206 236.1866  1.00273688 17785
GALAXY 33 (G-33)        
1 54026U 22128A   25183.54020988  .00000086  00000+0  00000+0 0  9999
2 54026   0.0112  49.9234 0001863  48.0690 244.3038  1.00272935 10238
GALAXY 34 (G-34)        
1 54027U 22128B   25183.54107869  .00000066  00000+0  00000+0 0  9992
2 54027   0.0173  26.8901 0001432  85.7497 233.9624  1.00273553 10407
GALAXY 31 (G-31)        
1 54243U 22153A   25183.54264253  .00000021  00000+0  00000+0 0  9992
2 54243   0.0179  99.3894 0000401  30.6986 225.0831  1.00272751  3623
GALAXY 32 (G-32)        
1 54244U 22153B   25183.29924106 -.00000167  00000+0  00000+0 0  9997
2 54244   0.0085  19.1257 0001877  29.8146 248.3527  1.00270854  9638
GALAXY 35 (G-35)        
1 54741U 22170A   25183.54820288 -.00000155  00000+0  00000+0 0  9999
2 54741   0.0163  64.7134 0002043  28.9864 291.3705  1.00273008  9382
GALAXY 36 (G-36)        
1 54742U 22170B   25183.44154909 -.00000177  00000+0  00000+0 0  9993
2 54742   0.0108  16.2350 0002872  85.9265 248.5160  1.00268742  9267
GALAXY 37 (G-37)        
1 57493U 23112A   25183.54142622  .00000056  00000+0  00000+0 0  9991
2 57493   0.0103 335.8821 0001870 124.4688 248.3808  1.00271875  7037
